STARLINK-4581           
1 53576U 22101BB  25075.56705681  .00000201  00000+0  30700-4 0  9995
2 53576  53.2156 221.5937 0001165  88.1354 271.9771 15.08833823142384
STARLINK-4553           
1 53577U 22101BC  25075.56241236 -.00002375  00000+0 -13125-3 0  9994
2 53577  53.2174 221.5669 0001254  97.8253 262.2882 15.08819835142384
STARLINK-4556           
1 53578U 22101BD  25075.55135790 -.00000519  00000+0 -14497-4 0  9993
2 53578  53.2170 221.4985 0001497  91.8929 268.2234 15.08835500142388
STARLINK-4580           
1 53579U 22101BE  25075.54767338 -.00000694  00000+0 -25485-4 0  9995
2 53579  53.2182 221.4760 0001532  95.4908 264.6258 15.08840209142388
STARLINK-4691           
1 53588U 22104A   25074.94883566  .00002036  00000+0  14594-3 0  9991
2 53588  53.2184  54.8148 0001292 115.1434 244.9692 15.08845238141935
STARLINK-4673           
1 53589U 22104B   25075.19536756 -.00001309  00000+0 -64172-4 0  9998
2 53589  53.2170  53.5130 0001467  93.3069 266.8091 15.08847634140806
STARLINK-4689           
1 53590U 22104C   25074.94514959  .00005106  00000+0  33875-3 0  9995
2 53590  53.2188  54.7921 0001543  77.4731 282.6434 15.08831030141803
STARLINK-4674           
1 53591U 22104D   25074.67649688 -.00001012  00000+0 -45512-4 0  9990
2 53591  53.2183  55.9537 0001596 102.6582 257.4588 15.08840803141761
STARLINK-4672           
1 53592U 22104E   25075.20369419  .00000450  00000+0  46375-4 0  9993
2 53592  53.2185  53.5641 0001550  94.0906 266.0264 15.08835928140801
STARLINK-4671           
1 53593U 22104F   25075.58334491  .00111803  00000+0  20901-2 0  9997
2 53593  53.1900  24.0489 0008009  97.8277 253.3889 15.47871072141241
STARLINK-4681           
1 53594U 22104G   25074.32687510  .00000338  00000+0  39354-4 0  9996
2 53594  53.2182  57.3369 0001482  97.1896 262.9265 15.08839375141835
STARLINK-4684           
1 53595U 22104H   25075.19167192 -.00004252  00000+0 -24905-3 0  9998
2 53595  53.2170  53.4899 0001316  85.7815 274.3327 15.08866562141214
STARLINK-4668           
1 53596U 22104J   25075.58334491  .00145162  00000+0  21432-2 0  9995
2 53596  53.2075   3.5866 0004116 125.0885  25.6131 15.54377751141549
STARLINK-4676           
1 53598U 22104L   25074.63596491  .00000565  00000+0  53605-4 0  9998
2 53598  53.2172  55.7105 0001358  97.5712 262.5435 15.08837456141418
STARLINK-4677           
1 53600U 22104N   25075.16324606 -.00001096  00000+0 -50803-4 0  9997
2 53600  53.2177  54.0078 0001168  95.9747 264.1378 15.08841886141200
STARLINK-4675           
1 53601U 22104P   25075.17695234  .00000778  00000+0  66995-4 0  9990
2 53601  53.2182  53.4002 0001917  84.7715 275.3496 15.08828746140800
STARLINK-4648           
1 53602U 22104Q   25074.65301416 -.00001163  00000+0 -55021-4 0  9998
2 53602  53.2181  50.8371 0001461  86.6446 273.4714 15.08831131141485
STARLINK-4692           
1 53603U 22104R   25074.94008826 -.00001223  00000+0 -58776-4 0  9997
2 53603  53.2177  49.7792 0001760  95.6821 264.4372 15.08821700141520
STARLINK-4690           
1 53604U 22104S   25075.17556367  .00004196  00000+0  28154-3 0  9998
2 53604  53.2163  48.4093 0001259  96.3006 263.8129 15.08845820140871
STARLINK-4693           
1 53605U 22104T   25075.16957772  .00000534  00000+0  51681-4 0  9997
2 53605  53.2179  53.3545 0001488  94.1078 266.0084 15.08831981140806
STARLINK-4590           
1 53606U 22104U   25075.19997870  .00000409  00000+0  43815-4 0  9995
2 53606  53.2181  43.5542 0001412  95.3944 264.7210 15.08827788140941
STARLINK-4591           
1 53607U 22104V   25074.92902619  .00003583  00000+0  24297-3 0  9991
2 53607  53.2169  49.7095 0002333  86.7572 273.3687 15.08857913141525
STARLINK-4647           
1 53608U 22104W   25075.14110984  .00000843  00000+0  71073-4 0  9994
2 53608  53.2198  43.9004 0001910 113.1528 246.9665 15.08827647140937
STARLINK-4660           
1 53609U 22104X   25075.16083093  .00000191  00000+0  30116-4 0  9996
2 53609  53.2175  48.3181 0001404  95.5424 264.5729 15.08828348140873
STARLINK-4610           
1 53610U 22104Y   25074.93597234 -.00000241  00000+0  29604-5 0  9997
2 53610  53.2177  44.7474 0001494  99.1408 260.9753 15.08839309141476
STARLINK-4650           
1 53611U 22104Z   25075.09348158  .00111545  00000+0  22920-2 0  9995
2 53611  53.1910   6.9024 0007674 106.5306 253.6545 15.45129708141449
STARLINK-4658           
1 53612U 22104AA  25075.19629119  .00000898  00000+0  74513-4 0  9991
2 53612  53.2189  43.5347 0001495  91.9126 268.2038 15.08832340140941
STARLINK-4655           
1 53613U 22104AB  25075.20366642 -.00000274  00000+0  88903-6 0  9992
2 53613  53.2201  43.5797 0001683  97.6100 262.5083 15.08831515140940
STARLINK-4605           
1 53616U 22104AE  25075.12726393  .00002666  00000+0  18554-3 0  9997
2 53616  53.2174  33.6437 0001481  95.5906 264.5255 15.08840587141077
STARLINK-4604           
1 53618U 22104AG  25075.16668981  .01000692  00000+0  86604-2 0  9999
2 53618  53.2167  36.6174 0001083 101.4601 125.1112 15.65990788141020
STARLINK-4609           
1 53619U 22104AH  25075.18892088 -.00000076  00000+0  13324-4 0  9996
2 53619  53.2187  43.4785 0001609 105.8049 254.3121 15.08836458140940
STARLINK-4615           
1 53620U 22104AJ  25075.17418123  .00000363  00000+0  40911-4 0  9991
2 53620  53.2190  43.3919 0001533  90.8112 269.3056 15.08838470140943
STARLINK-4608           
1 53621U 22104AK  25074.65531306 -.00000737  00000+0 -28178-4 0  9991
2 53621  53.2187  45.8378 0001571  95.1767 264.9405 15.08849565141433
STARLINK-4568           
1 53622U 22104AL  25075.15208246  .00007862  00000+0  51153-3 0  9994
2 53622  53.2164  43.2603 0001350 100.2025 259.9119 15.08836018140942
STARLINK-4573           
1 53623U 22104AM  25075.17786404  .00004177  00000+0  28039-3 0  9997
2 53623  53.2175  43.4166 0001947  84.7632 275.3583 15.08836260140949
STARLINK-4596           
1 53624U 22104AN  25074.90185629  .00000081  00000+0  23179-4 0  9991
2 53624  53.2185  44.5422 0001806  90.6945 269.4254 15.08822672141587
STARLINK-4554           
1 53626U 22104AQ  25075.15575937 -.00003419  00000+0 -19680-3 0  9997
2 53626  53.2179  43.2820 0001602  88.6236 271.4939 15.08838811140948
STARLINK-4595           
1 53627U 22104AR  25075.16312919  .00000143  00000+0  27059-4 0  9997
2 53627  53.2175  43.3266 0001320  90.9821 269.1322 15.08841412140944
STARLINK-4600           
1 53628U 22104AS  25075.21463115  .00000112  00000+0  25154-4 0  9999
2 53628  53.2187  42.9389 0001551  92.7676 267.3493 15.08834626140952
STARLINK-4602           
1 53629U 22104AT  25074.29832328  .00008095  00000+0  52644-3 0  9994
2 53629  53.2179  47.1706 0001577  94.8150 265.3022 15.08816216141505
STARLINK-4598           
1 53630U 22104AU  25075.12825386 -.00000937  00000+0 -40764-4 0  9995
2 53630  53.2203  33.8412 0001714  95.8666 264.2521 15.08832575141077
STARLINK-4599           
1 53631U 22104AV  25075.21094425  .00000058  00000+0  21738-4 0  9990
2 53631  53.2180  42.9202 0001533  97.9174 262.1993 15.08837129140952
STARLINK-4606           
1 53632U 22104AW  25075.18616538  .00000512  00000+0  50265-4 0  9994
2 53632  53.2192  33.4911 0001461  94.8745 265.2414 15.08826674141088
STARLINK-4593           
1 53633U 22104AX  25075.18985322  .00002016  00000+0  14475-3 0  9998
2 53633  53.2202  33.5182 0001570  95.1149 265.0023 15.08829086141089
STARLINK-4592           
1 53634U 22104AY  25075.17879389  .00000767  00000+0  66307-4 0  9996
2 53634  53.2189  33.4465 0001644 106.6372 253.4801 15.08832591141085
STARLINK-4587           
1 53635U 22104AZ  25075.18247873  .00007251  00000+0  47288-3 0  9996
2 53635  53.2170  33.4640 0001169  96.2632 263.8493 15.08862480141088
STARLINK-4586           
1 53636U 22104BA  25075.17144315  .00024179  00000+0  15304-2 0  9994
2 53636  53.2192  33.3951 0001426  94.8909 265.2246 15.08880242141082
STARLINK-4396           
1 53637U 22104BB  25075.13930274  .00001521  00000+0  11364-3 0  9997
2 53637  53.2176  33.8986 0001424  95.3340 264.7815 15.08830706141076
STARLINK-4594           
1 53638U 22104BC  25075.15299608 -.00002123  00000+0 -11535-3 0  9990
2 53638  53.2200  33.2812 0001359 101.4269 258.6876 15.08841202141086
STARLINK-4422           
1 53639U 22104BD  25074.90277714 -.00000364  00000+0 -47728-5 0  9997
2 53639  53.2181  34.5602 0001143 106.2076 253.9042 15.08831772141899
STARLINK-4597           
1 53640U 22104BE  25075.16405197  .00000900  00000+0  74627-4 0  9997
2 53640  53.2173  33.3488 0001478  92.0091 268.1071 15.08836798141085
STARLINK-4588           
1 53641U 22104BF  25075.17510488  .00001397  00000+0  10586-3 0  9993
2 53641  53.2184  33.4180 0001409  92.6049 267.5104 15.08832281141084
STARLINK-4622           
1 53648U 22105A   25075.18853844  .00000933  00000+0  77254-4 0  9999
2 53648  97.6541 318.1242 0002643  95.0706 265.0820 15.01249293139746
STARLINK-4386           
1 53649U 22105B   25075.18667222  .00000837  00000+0  69791-4 0  9993
2 53649  97.6550 318.1220 0001738  95.9022 264.2400 15.01253134139729
STARLINK-4380           
1 53650U 22105C   25075.18482282  .00000925  00000+0  76569-4 0  9995
2 53650  97.6548 318.1199 0001655  91.7321 268.4093 15.01256219139728
STARLINK-4388           
1 53651U 22105D   25074.91635572  .00000443  00000+0  39085-4 0  9995
2 53651  97.6547 317.8548 0001336  88.6088 271.5289 15.01259541139681
STARLINK-4374           
1 53652U 22105E   25074.91451089  .00002258  00000+0  18040-3 0  9998
2 53652  97.6553 317.8523 0001177  89.0889 271.0470 15.01253875139400
STARLINK-4390           
1 53653U 22105F   25075.13298670  .00000393  00000+0  35237-4 0  9995
2 53653  97.6536 318.0278 0003433  37.2647 322.8815 15.01256041139716
STARLINK-4420           
1 53654U 22105G   25075.17555986  .00001667  00000+0  13435-3 0  9996
2 53654  97.6550 318.1082 0000265 116.4172 243.7080 15.01255559139729
